QIANFAN-81              
1 63167U 25046J   25235.91145295  .00000137  00000+0  19373-3 0  9999
2 63167  88.9864 331.3038 0016616  85.0593 275.2454 13.50966358 32526
QIANFAN-82              
1 63168U 25046K   25235.87021190  .00000139  00000+0  19607-3 0  9994
2 63168  88.9864 331.3515 0014881  92.5246 267.7609 13.50963444 32506
QIANFAN-83              
1 63169U 25046L   25235.90960357  .00000175  00000+0  21091-3 0  9996
2 63169  88.9864 331.3410 0016063  84.4759 275.8230 13.61939209 32519
QIANFAN-84              
1 63170U 25046M   25235.89896833  .00000066  00000+0  82745-4 0  9996
2 63170  88.9864 331.4816 0017790  88.6647 271.6542 13.50970344 32436
QIANFAN-85              
1 63171U 25046N   25235.89500568  .00000149  00000+0  21166-3 0  9995
2 63171  88.9864 331.3542 0015210  91.4293 268.8600 13.50964343 32509
QIANFAN-86              
1 63172U 25046P   25235.90322650  .00000141  00000+0  19999-3 0  9995
2 63172  88.9866 331.2130 0013145  95.6203 264.6448 13.50964877 32580
QIANFAN-87              
1 63173U 25046Q   25235.87435921  .00000144  00000+0  20475-3 0  9992
2 63173  88.9862 331.3317 0013791  91.1186 269.1545 13.50961666 32517
QIANFAN-88              
1 63174U 25046R   25235.89091072  .00000154  00000+0  21942-3 0  9991
2 63174  88.9865 331.2819 0014261  97.8991 262.3780 13.50968840 32547
